0 METEOR 2-8 DEB
1 36349U 82025AK  13282.21848502  .00002578  00000-0  15203-2 0  3010
2 36349 082.5205 086.2711 0010788 281.9566 197.8527 14.07534222553928
0 METEOR 2-8 DEB
1 36349U 82025AK  13287.19548907  .00003072  00000-0  18127-2 0  3038
2 36349 082.5208 082.1461 0010896 266.6391 217.9183 14.07555079554627
0 METEOR 2-8 DEB
1 36349U 82025AK  13289.74142656  .00003600  00000-0  21247-2 0  3047
2 36349 082.5205 080.0355 0011125 257.1960 160.7943 14.07572992554976
0 METEOR 2-8 DEB
1 36349U 82025AK  13292.17044162  .00003413  00000-0  20137-2 0  3051
2 36349 082.5229 078.0229 0011173 251.2909 228.1312 14.07586484555320
0 METEOR 2-8 DEB
1 36349U 82025AK  13295.15606604  .00004109  00000-0  24248-2 0  3068
2 36349 082.5223 075.5486 0011403 241.0378 238.8778 14.07604542555740
